
# Worst residual: 4.08 km
# MJD 58764.000000 (2019 Oct  8  0:00)
1969-046F = NORAD 03956 = Vela booster
1 03956U 69046F   19281.49918769  .00000000  00000-0  00000-0 0  3738
2 03956 019.7525 342.6813 8073556 262.4817 283.5501 00.46194991    02

# Worst residual: 4.10 km
# MJD 58765.000000 (2019 Oct  9  0:00)
1969-046F = NORAD 03956 = Vela booster
1 03956U 69046F   19282.49918769  .00000000  00000-0  00000-0 0  3739
2 03956 019.7504 342.6349 8073563 262.5499 089.8131 00.46199848    00

# Worst residual: 5.20 km
# MJD 58766.000000 (2019 Oct 10  0:00)
1969-046F = NORAD 03956 = Vela booster
1 03956U 69046F   19283.49918769  .00000000  00000-0  00000-0 0  3730
2 03956 019.7507 342.6521 8072830 262.5518 256.0909 00.46194570    01

# Worst residual: 9.22 km
# MJD 58767.000000 (2019 Oct 11  0:00)
1969-046F = NORAD 03956 = Vela booster
1 03956U 69046F   19284.49918769  .00000000  00000-0  00000-0 0  3731
2 03956 019.7491 342.6203 8071767 262.6036 062.3496 00.46199081    05

# Worst residual: 6.65 km
# MJD 58768.000000 (2019 Oct 12  0:00)
1969-046F = NORAD 03956 = Vela booster
1 03956U 69046F   19285.49918769  .00000000  00000-0  00000-0 0  3732
2 03956 019.7471 342.6154 8073064 262.6193 228.6350 00.46199594    09

# Worst residual: 7.34 km
# MJD 58769.000000 (2019 Oct 13  0:00)
1969-046F = NORAD 03956 = Vela booster
1 03956U 69046F   19286.49918769  .00000000  00000-0  00000-0 0  3733
2 03956 019.7472 342.5979 8072431 262.6543 034.9223 00.46193398    03

# Worst residual: 3.46 km
# MJD 58770.000000 (2019 Oct 14  0:00)
1969-046F = NORAD 03956 = Vela booster
1 03956U 69046F   19287.49918769  .00000000  00000-0  00000-0 0  3734
2 03956 019.7405 342.5558 8075770 262.7088 201.1392 00.46195791    00

# Worst residual: 13.79 km
# MJD 58771.000000 (2019 Oct 15  0:00)
1969-046F = NORAD 03956 = Vela booster
1 03956U 69046F   19288.49918769  .00000000  00000-0  00000-0 0  3735
2 03956 019.7417 342.5281 8077844 262.7599 007.4551 00.46182277    06

# Worst residual: 5.40 km
# MJD 58772.000000 (2019 Oct 16  0:00)
1969-046F = NORAD 03956 = Vela booster
1 03956U 69046F   19289.49918769  .00000000  00000-0  00000-0 0  3736
2 03956 019.7352 342.4866 8078479 262.8362 173.6111 00.46175787    02

# Worst residual: 19.64 km
# MJD 58773.000000 (2019 Oct 17  0:00)
1969-046F = NORAD 03956 = Vela booster
1 03956U 69046F   19290.49918769  .00000000  00000-0  00000-0 0  3738
2 03956 019.7359 342.4565 8082065 262.9060 339.8293 00.46180330    04

# Worst residual: 5.42 km
# MJD 58774.000000 (2019 Oct 18  0:00)
1969-046F = NORAD 03956 = Vela booster
1 03956U 69046F   19291.49918769  .00000000  00000-0  00000-0 0  3739
2 03956 019.7336 342.4301 8079353 262.9821 146.0609 00.46179799    04

# Worst residual: 10.70 km
# MJD 58775.000000 (2019 Oct 19  0:00)
1969-046F = NORAD 03956 = Vela booster
1 03956U 69046F   19292.49918769  .00000000  00000-0  00000-0 0  3730
2 03956 019.7331 342.4482 8077047 263.0003 312.1821 00.46174506    04

# Worst residual: 7.70 km
# MJD 58776.000000 (2019 Oct 20  0:00)
1969-046F = NORAD 03956 = Vela booster
1 03956U 69046F   19293.49918769  .00000000  00000-0  00000-0 0  3731
2 03956 019.7313 342.4178 8075603 263.0708 118.4451 00.46195596    02

# Worst residual: 8.26 km
# MJD 58777.000000 (2019 Oct 21  0:00)
1969-046F = NORAD 03956 = Vela booster
1 03956U 69046F   19294.49918769  .00000000  00000-0  00000-0 0  3732
2 03956 019.7309 342.4540 8071853 263.0506 284.7002 00.46185912    09

# Worst residual: 4.85 km
# MJD 58778.000000 (2019 Oct 22  0:00)
1969-046F = NORAD 03956 = Vela booster
1 03956U 69046F   19295.49918769  .00000000  00000-0  00000-0 0  3733
2 03956 019.7270 342.4162 8071222 263.1086 090.9365 00.46193531    05

# Worst residual: 3.75 km
# MJD 58779.000000 (2019 Oct 23  0:00)
1969-046F = NORAD 03956 = Vela booster
1 03956U 69046F   19296.49918769  .00000000  00000-0  00000-0 0  3734
2 03956 019.7255 342.4110 8072775 263.1265 257.2354 00.46202011    04

# Worst residual: 11.44 km
# MJD 58780.000000 (2019 Oct 24  0:00)
1969-046F = NORAD 03956 = Vela booster
1 03956U 69046F   19297.49918769  .00000000  00000-0  00000-0 0  3735
2 03956 019.7233 342.3815 8071283 263.1718 063.5030 00.46200245    03

# Worst residual: 2.77 km
# MJD 58781.000000 (2019 Oct 25  0:00)
1969-046F = NORAD 03956 = Vela booster
1 03956U 69046F   19298.49918769  .00000000  00000-0  00000-0 0  3736
2 03956 019.7206 342.3661 8073860 263.2111 229.7001 00.46196039    02

# Worst residual: 6.33 km
# MJD 58782.000000 (2019 Oct 26  0:00)
1969-046F = NORAD 03956 = Vela booster
1 03956U 69046F   19299.49918769  .00000000  00000-0  00000-0 0  3737
2 03956 019.7213 342.3397 8073722 263.2653 035.9812 00.46205250    07

# Worst residual: 4.48 km
# MJD 58783.000000 (2019 Oct 27  0:00)
1969-046F = NORAD 03956 = Vela booster
1 03956U 69046F   19300.49918769  .00000000  00000-0  00000-0 0  3730
2 03956 019.7186 342.3334 8074494 263.3032 202.1629 00.46188229    06

# Worst residual: 15.08 km
# MJD 58784.000000 (2019 Oct 28  0:00)
1969-046F = NORAD 03956 = Vela booster
1 03956U 69046F   19301.49918769  .00000000  00000-0  00000-0 0  3731
2 03956 019.7197 342.3165 8075366 263.3476 008.4289 00.46178601    03

# Worst residual: 2.13 km
# MJD 58785.000000 (2019 Oct 29  0:00)
1969-046F = NORAD 03956 = Vela booster
1 03956U 69046F   19302.49918769  .00000000  00000-0  00000-0 0  3732
2 03956 019.7171 342.3055 8074483 263.3850 174.6725 00.46188141    09

# Worst residual: 20.48 km
# MJD 58786.000000 (2019 Oct 30  0:00)
1969-046F = NORAD 03956 = Vela booster
1 03956U 69046F   19303.49918769  .00000000  00000-0  00000-0 0  3733
2 03956 019.7180 342.2971 8075269 263.4080 340.9533 00.46164051    03

# Worst residual: 4.19 km
# MJD 58787.000000 (2019 Oct 31  0:00)
1969-046F = NORAD 03956 = Vela booster
1 03956U 69046F   19304.49918769  .00000000  00000-0  00000-0 0  3734
2 03956 019.7151 342.2719 8073909 263.4630 147.2052 00.46187481    07

# Worst residual: 10.64 km
# MJD 58788.000000 (2019 Nov  1  0:00)
1969-046F = NORAD 03956 = Vela booster
1 03956U 69046F   19305.49918769  .00000000  00000-0  00000-0 0  3735
2 03956 019.7142 342.2690 8074775 263.4793 313.4869 00.46178468    05

# Worst residual: 8.82 km
# MJD 58789.000000 (2019 Nov  2  0:00)
1969-046F = NORAD 03956 = Vela booster
1 03956U 69046F   19306.49918769  .00000000  00000-0  00000-0 0  3736
2 03956 019.7128 342.2284 8074018 263.5551 119.7263 00.46185498    07

# Worst residual: 4.06 km
# MJD 58790.000000 (2019 Nov  3  0:00)
1969-046F = NORAD 03956 = Vela booster
1 03956U 69046F   19307.49918769  .00000000  00000-0  00000-0 0  3737
2 03956 019.7116 342.2276 8074969 263.5723 285.9902 00.46190324    01

# Worst residual: 6.51 km
# MJD 58791.000000 (2019 Nov  4  0:00)
1969-046F = NORAD 03956 = Vela booster
1 03956U 69046F   19308.49918769  .00000000  00000-0  00000-0 0  3738
2 03956 019.7102 342.1816 8074765 263.6513 092.2335 00.46189421    02
